NORAD_CAT_ID,OBJECT_NAME,OBJECT_TYPE,EPOCH,MEAN_MOTION,ECCENTRICITY,INCLINATION,RA_OF_ASC_NODE,ARG_OF_PERICENTER,MEAN_ANOMALY,BSTAR,MEAN_MOTION_DOT,MEAN_MOTION_DDOT,TLE_LINE0,TLE_LINE1,TLE_LINE2,SEMIMAJOR_AXIS,PERIOD,APOGEE,PERIGEE,DECAYED
53837.0,STARLINK-4776,PAYLOAD,2023-10-24 12:41:12,15.08849687,0.0001556,53.2177,236.6672,77.3393,282.7773,0.00058679,9.066e-05,0.0,0 STARLINK-4776,1 53837U 22114V   23297.52861637  .00009066  00000-0  58679-3 0  9996,2 53837  53.2177 236.6672 0001556  77.3393 282.7773 15.08849687 61384,6917.851,95.437,540.792,538.639,0.0
53837.0,STARLINK-4776,PAYLOAD,2023-10-25 04:35:03,15.08861219,0.0001464,53.2168,233.6941,88.3463,271.7697,0.00085178,0.00013302,0.0,0 STARLINK-4776,1 53837U 22114V   23298.19101230  .00013302  00000-0  85178-3 0  9998,2 53837  53.2168 233.6941 0001464  88.3463 271.7697 15.08861219 62028,6917.816,95.436,540.693,538.668,0.0
53837.0,STARLINK-4776,PAYLOAD,2023-10-26 04:25:50,15.08857664,0.0001445,53.2162,229.2326,101.1594,258.9561,0.00088105,0.00013768,0.0,0 STARLINK-4776,1 53837U 22114V   23299.18461313  .00013768  00000-0  88105-3 0  9998,2 53837  53.2162 229.2326 0001445 101.1594 258.9561 15.08857664 61630,6917.826,95.436,540.691,538.692,0.0
53837.0,STARLINK-4776,PAYLOAD,2023-10-26 06:01:13,15.08857591,0.0001367,53.2161,228.9355,100.1142,260.0004,0.00086654,0.00013536,0.0,0 STARLINK-4776,1 53837U 22114V   23299.25085270  .00013536  00000-0  86654-3 0  9990,2 53837  53.2161 228.9355 0001367 100.1142 260.0004 15.08857591 62184,6917.827,95.436,540.637,538.746,0.0
53837.0,STARLINK-4776,PAYLOAD,2023-10-27 02:41:14,15.08862325,0.0001433,53.2163,225.0678,97.518,262.5975,0.00087007,0.00013595,0.0,0 STARLINK-4776,1 53837U 22114V   23300.11197042  .00013595  00000-0  87007-3 0  9997,2 53837  53.2163 225.0678 0001433  97.5180 262.5975 15.08862325 61776,6917.812,95.436,540.668,538.686,0.0
53837.0,STARLINK-4776,PAYLOAD,2023-10-27 12:13:33,15.08843799,0.0001706,53.2166,223.2862,83.0122,277.1064,0.00044063,6.732e-05,0.0,0 STARLINK-4776,1 53837U 22114V   23300.50941501  .00006732  00000-0  44063-3 0  9997,2 53837  53.2166 223.2862 0001706  83.0122 277.1064 15.08843799 61835,6917.869,95.437,540.914,538.554,0.0
53837.0,STARLINK-4776,PAYLOAD,2023-10-27 18:35:06,15.08838116,0.0001999,53.2154,222.0994,81.2759,278.846,0.00028058,4.18e-05,0.0,0 STARLINK-4776,1 53837U 22114V   23300.77437802  .00004180  00000-0  28058-3 0  9991,2 53837  53.2154 222.0994 0001999  81.2759 278.8460 15.08838116 62415,6917.886,95.438,541.134,538.368,0.0
53837.0,STARLINK-4776,PAYLOAD,2023-10-28 00:56:38,15.08832172,0.0001312,53.2154,220.9069,89.2197,270.8946,9.7695e-05,1.267e-05,0.0,0 STARLINK-4776,1 53837U 22114V   23301.03933920  .00001267  00000-0  97695-4 0  9990,2 53837  53.2154 220.9069 0001312  89.2197 270.8946 15.08832172 61919,6917.904,95.438,540.677,538.862,0.0
53837.0,STARLINK-4776,PAYLOAD,2023-10-28 12:04:21,15.08838216,0.0001444,53.2162,218.8271,82.7285,277.3871,0.00086365,0.00013483,0.0,0 STARLINK-4776,1 53837U 22114V   23301.50302379  .00013483  00000-0  86365-3 0  9994,2 53837  53.2162 218.8271 0001444  82.7285 277.3871 15.08838216 62523,6917.886,95.438,540.75,538.752,0.0
53837.0,STARLINK-4776,PAYLOAD,2023-10-28 18:25:53,15.08838379,0.0001532,53.2167,217.6367,88.7937,271.3231,0.00068481,0.00010627,0.0,0 STARLINK-4776,1 53837U 22114V   23301.76798537  .00010627  00000-0  68481-3 0  9993,2 53837  53.2167 217.6367 0001532  88.7937 271.3231 15.08838379 62567,6917.885,95.438,540.81,538.691,0.0
53837.0,STARLINK-4776,PAYLOAD,2023-10-29 00:47:26,15.08851664,0.0001678,53.2164,216.4487,83.2709,276.8474,0.00087005,0.0001359,0.0,0 STARLINK-4776,1 53837U 22114V   23302.03294318  .00013590  00000-0  87005-3 0  9997,2 53837  53.2164 216.4487 0001678  83.2709 276.8474 15.08851664 62068,6917.845,95.437,540.871,538.549,0.0
53837.0,STARLINK-4776,PAYLOAD,2023-10-29 11:55:08,15.0885097,0.000199,53.2164,214.3656,78.3779,281.7436,0.00064039,9.922e-05,0.0,0 STARLINK-4776,1 53837U 22114V   23302.49662344  .00009922  00000-0  64039-3 0  9991,2 53837  53.2164 214.3656 0001990  78.3779 281.7436 15.08850970 62132,6917.847,95.437,541.089,538.335,0.0
53837.0,STARLINK-4776,PAYLOAD,2023-10-29 21:27:26,15.08850682,0.0001767,53.2171,212.5814,88.4507,271.6687,0.00042219,6.439e-05,0.0,0 STARLINK-4776,1 53837U 22114V   23302.89406137  .00006439  00000-0  42219-3 0  9997,2 53837  53.2171 212.5814 0001767  88.4507 271.6687 15.08850682 62731,6917.848,95.437,540.935,538.49,0.0
53837.0,STARLINK-4776,PAYLOAD,2023-10-30 03:48:59,15.08854328,0.0001632,53.2172,211.3902,97.7151,262.4026,0.0004077,6.209e-05,0.0,0 STARLINK-4776,1 53837U 22114V   23303.15901780  .00006209  00000-0  40770-3 0  9996,2 53837  53.2172 211.3902 0001632  97.7151 262.4026 15.08854328 62237,6917.837,95.437,540.831,538.573,0.0
53837.0,STARLINK-4776,PAYLOAD,2023-10-30 21:18:14,15.08836199,0.0001468,53.2168,208.1217,82.6198,277.4961,-8.5216e-06,-4.24e-06,0.0,0 STARLINK-4776,1 53837U 22114V   23303.88766619 -.00000424  00000-0 -85216-5 0  9997,2 53837  53.2168 208.1217 0001468  82.6198 277.4961 15.08836199 62348,6917.892,95.438,540.773,538.741,0.0
53837.0,STARLINK-4776,PAYLOAD,2023-10-31 21:09:01,15.08841937,0.0001432,53.2169,203.6605,94.3378,265.7778,0.00020908,3.041e-05,0.0,0 STARLINK-4776,1 53837U 22114V   23304.88126690  .00003041  00000-0  20908-3 0  9998,2 53837  53.2169 203.6605 0001432  94.3378 265.7778 15.08841937 63030,6917.874,95.437,540.73,538.749,0.0
53837.0,STARLINK-4776,PAYLOAD,2023-11-01 03:30:33,15.08851326,0.0001315,53.2163,202.4711,93.7837,266.3305,0.00061185,9.466e-05,0.0,0 STARLINK-4776,1 53837U 22114V   23305.14622534  .00009466  00000-0  61185-3 0  9995,2 53837  53.2163 202.4711 0001315  93.7837 266.3305 15.08851326 62532,6917.846,95.437,540.62,538.801,0.0
53837.0,STARLINK-4776,PAYLOAD,2023-11-01 09:52:06,15.08849888,0.0001276,53.2153,201.2815,92.017,268.0969,0.00046462,7.116e-05,0.0,0 STARLINK-4776,1 53837U 22114V   23305.41118497  .00007116  00000-0  46462-3 0  9994,2 53837  53.2153 201.2815 0001276  92.0170 268.0969 15.08849888 63111,6917.85,95.437,540.598,538.832,0.0
53837.0,STARLINK-4776,PAYLOAD,2023-11-01 20:59:48,15.08846504,0.0001706,53.2172,199.2036,97.2579,262.8607,0.00025594,3.788e-05,0.0,0 STARLINK-4776,1 53837U 22114V   23305.87486645  .00003788  00000-0  25594-3 0  9991,2 53837  53.2172 199.2036 0001706  97.2579 262.8607 15.08846504 62641,6917.861,95.437,540.906,538.545,0.0
53837.0,STARLINK-4776,PAYLOAD,2023-11-01 22:35:11,15.08848311,0.0001728,53.2171,198.9062,97.5833,262.5355,0.00029852,4.467e-05,0.0,0 STARLINK-4776,1 53837U 22114V   23305.94110587  .00004467  00000-0  29852-3 0  9994,2 53837  53.2171 198.9062 0001728  97.5833 262.5355 15.08848311 63191,6917.855,95.437,540.915,538.525,0.0
53837.0,STARLINK-4776,PAYLOAD,2023-11-02 09:42:53,15.08848287,0.000146,53.215,196.8199,79.0397,281.076,0.00032074,4.821e-05,0.0,0 STARLINK-4776,1 53837U 22114V   23306.40478337  .00004821  00000-0  32074-3 0  9990,2 53837  53.2150 196.8199 0001460  79.0397 281.0760 15.08848287 63265,6917.855,95.437,540.73,538.71,0.0
53837.0,STARLINK-4776,PAYLOAD,2023-11-02 20:50:35,15.0884125,0.0002265,53.2164,194.7393,78.7036,281.421,8.6516e-05,1.089e-05,0.0,0 STARLINK-4776,1 53837U 22114V   23306.86846777  .00001089  00000-0  86516-4 0  9991,2 53837  53.2164 194.7393 0002265  78.7036 281.4210 15.08841250 62797,6917.877,95.437,541.308,538.175,0.0
53837.0,STARLINK-4776,PAYLOAD,2023-11-02 22:25:58,15.08837799,0.0001852,53.216,194.4419,79.6021,280.518,-4.9362e-05,-1.074e-05,0.0,0 STARLINK-4776,1 53837U 22114V   23306.93470762 -.00001074  00000-0 -49362-4 0  9990,2 53837  53.2160 194.4419 0001852  79.6021 280.5180 15.08837799 63345,6917.887,95.438,541.033,538.471,0.0
53837.0,STARLINK-4776,PAYLOAD,2023-11-03 09:33:40,15.08840528,0.0001508,53.2153,192.3599,87.1385,272.978,2.5465e-05,1.17e-06,0.0,0 STARLINK-4776,1 53837U 22114V   23307.39838541  .00000117  00000-0  25465-4 0  9997,2 53837  53.2153 192.3599 0001508  87.1385 272.9780 15.08840528 63411,6917.879,95.438,540.787,538.701,0.0
53837.0,STARLINK-4776,PAYLOAD,2023-11-03 22:16:45,15.08840964,0.000179,53.2165,189.9827,88.805,271.3148,7.5044e-05,9.06e-06,0.0,0 STARLINK-4776,1 53837U 22114V   23307.92830747  .00000906  00000-0  75044-4 0  9990,2 53837  53.2165 189.9827 0001790  88.8050 271.3148 15.08840964 63493,6917.877,95.437,540.981,538.504,0.0
53837.0,STARLINK-4776,PAYLOAD,2023-11-04 01:27:31,15.08846245,0.0001618,53.2158,189.3881,91.2156,268.9022,0.00019045,2.745e-05,0.0,0 STARLINK-4776,1 53837U 22114V   23308.06078533  .00002745  00000-0  19045-3 0  9994,2 53837  53.2158 189.3881 0001618  91.2156 268.9022 15.08846245 62976,6917.861,95.437,540.846,538.607,0.0
53837.0,STARLINK-4776,PAYLOAD,2023-11-04 09:24:27,15.08842968,0.0001593,53.2161,187.9014,87.5316,272.5858,0.00013105,1.798e-05,0.0,0 STARLINK-4776,1 53837U 22114V   23308.39198700  .00001798  00000-0  13105-3 0  9997,2 53837  53.2161 187.9014 0001593  87.5316 272.5858 15.08842968 63562,6917.871,95.437,540.838,538.634,0.0
53837.0,STARLINK-4776,PAYLOAD,2023-11-04 20:32:09,15.0883992,0.0001655,53.2159,185.82,82.9353,277.1827,0.00015278,2.144e-05,0.0,0 STARLINK-4776,1 53837U 22114V   23308.85567027  .00002144  00000-0  15278-3 0  9999,2 53837  53.2159 185.8200 0001655  82.9353 277.1827 15.08839920 63091,6917.881,95.438,540.891,538.601,0.0
53837.0,STARLINK-4776,PAYLOAD,2023-11-04 22:07:32,15.0884265,0.0001358,53.2152,185.5208,88.6345,271.4803,0.00012459,1.696e-05,0.0,0 STARLINK-4776,1 53837U 22114V   23308.92190740  .00001696  00000-0  12459-3 0  9990,2 53837  53.2152 185.5208 0001358  88.6345 271.4803 15.08842650 63649,6917.872,95.437,540.677,538.798,0.0
53837.0,STARLINK-4776,PAYLOAD,2023-11-05 01:18:18,15.08851843,0.0001434,53.2161,184.9248,87.9715,272.1441,0.00032578,4.902e-05,0.0,0 STARLINK-4776,1 53837U 22114V   23309.05438446  .00004902  00000-0  32578-3 0  9990,2 53837  53.2161 184.9248 0001434  87.9715 272.1441 15.08851843 63127,6917.844,95.437,540.701,538.717,0.0
